[{"OBJECT_NAME":"SVYATOBOR 1 (RS60S)","OBJECT_ID":"2023-091X","EPOCH":"2026-03-09T23:06:11.081664","MEAN_MOTION":15.2482043,"ECCENTRICITY":0.00111996,"INCLINATION":97.5206,"RA_OF_ASC_NODE":132.3062,"ARG_OF_PERICENTER":84.4206,"MEAN_ANOMALY":275.8308,"EPHEMERIS_TYPE":0,"CLASSIFICATION_TYPE":"U","NORAD_CAT_ID":57187,"ELEMENT_SET_NO":999,"REV_AT_EPOCH":14918,"BSTAR":0.00046454276,"MEAN_MOTION_DOT":0.00011484,"MEAN_MOTION_DDOT":0},{"OBJECT_NAME":"STARLINK-36259","OBJECT_ID":"2025-299E","EPOCH":"2026-03-09T22:00:01.999584","MEAN_MOTION":15.37963448,"ECCENTRICITY":0.00013295,"INCLINATION":43.0007,"RA_OF_ASC_NODE":167.5121,"ARG_OF_PERICENTER":271.8286,"MEAN_ANOMALY":77.0727,"EPHEMERIS_TYPE":0,"CLASSIFICATION_TYPE":"U","NORAD_CAT_ID":67106,"ELEMENT_SET_NO":999,"REV_AT_EPOCH":590,"BSTAR":-0.06132752,"MEAN_MOTION_DOT":-0.02109639,"MEAN_MOTION_DDOT":0}]
